start=new Date('2023-02-11T00:00:00.000Z').valueOf();
sats=[{"EPHEMERIS_TYPE":"0","OBJECT_ID":"2022-005AF","MEAN_MOTION":"15.08884483","EPOCH":"2023-02-10T04:00:41.823936","DECAY_DATE":null,"SEMIMAJOR_AXIS":"6917.744","BSTAR":"0.00385260000000","OBJECT_NAME":"STARLINK-3356","CLASSIFICATION_TYPE":"U","LAUNCH_DATE":"2022-01-19","APOAPSIS":"540.132","PERIAPSIS":"539.086","PERIOD":"95.435","RCS_SIZE":"LARGE","MEAN_ANOMALY":"243.8757","INCLINATION":"53.2148","SITE":"AFETR","OBJECT_TYPE":"PAYLOAD","GP_ID":"225071018","REV_AT_EPOCH":"5911","COUNTRY_CODE":"US","CENTER_NAME":"EARTH","MEAN_MOTION_DOT":"0.00061638","TLE_LINE1":"1 51133U 22005AF  23041.16715074  .00061638  00000-0  38526-2 0  9993","MEAN_ELEMENT_THEORY":"SGP4","ECCENTRICITY":"0.00007560","REF_FRAME":"TEME","FILE":"3785071","NORAD_CAT_ID":"51133","TIME_SYSTEM":"UTC","RA_OF_ASC_NODE":"302.8139","ARG_OF_PERICENTER":"116.2313","TLE_LINE2":"2 51133  53.2148 302.8139 0000756 116.2313 243.8757 15.08884483 59110","MEAN_MOTION_DDOT":"0.0000000000000","ELEMENT_SET_NO":"999"},{"ECCENTRICITY":"0.00006730","TLE_LINE1":"1 51134U 22005AG  23041.13590793  .00038641  00000-0  24310-2 0  9994","MEAN_ELEMENT_THEORY":"SGP4","MEAN_MOTION_DOT":"0.00038641","TLE_LINE2":"2 51134  53.2160 292.9516 0000673  45.1719 314.9327 15.08865857 59264","MEAN_MOTION_DDOT":"0.0000000000000","ELEMENT_SET_NO":"999","RA_OF_ASC_NODE":"292.9516","ARG_OF_PERICENTER":"45.1719","FILE":"3784184","REF_FRAME":"TEME","NORAD_CAT_ID":"51134","TIME_SYSTEM":"UTC","LAUNCH_DATE":"2022-01-19","APOAPSIS":"540.132","PERIAPSIS":"539.201","BSTAR":"0.00243100000000","SEMIMAJOR_AXIS":"6917.801","OBJECT_NAME":"STARLINK-3183","CLASSIFICATION_TYPE":"U","MEAN_MOTION":"15.08865857","EPOCH":"2023-02-10T03:15:42.445152","DECAY_DATE":null,"EPHEMERIS_TYPE":"0","OBJECT_ID":"2022-005AG","COUNTRY_CODE":"US","REV_AT_EPOCH":"5926","CENTER_NAME":"EARTH","OBJECT_TYPE":"PAYLOAD","GP_ID":"225000696","PERIOD":"95.436","RCS_SIZE":"LARGE","MEAN_ANOMALY":"314.9327","SITE":"AFETR","INCLINATION":"53.2160"},{"OBJECT_TYPE":"PAYLOAD","GP_ID":"225045437","PERIOD":"95.436","RCS_SIZE":"LARGE","MEAN_ANOMALY":"262.7043","INCLINATION":"53.2152","SITE":"AFETR","COUNTRY_CODE":"US","REV_AT_EPOCH":"6022","CENTER_NAME":"EARTH","EPOCH":"2023-02-10T02:20:00.934656","MEAN_MOTION":"15.08867981","DECAY_DATE":null,"EPHEMERIS_TYPE":"0","OBJECT_ID":"2022-005AH","LAUNCH_DATE":"2022-01-19","APOAPSIS":"540.260","PERIAPSIS":"539.059","SEMIMAJOR_AXIS":"6917.795","BSTAR":"0.00229720000000","OBJECT_NAME":"STARLINK-3363","CLASSIFICATION_TYPE":"U","RA_OF_ASC_NODE":"303.1242","ARG_OF_PERICENTER":"97.4047","REF_FRAME":"TEME","FILE":"3784938","NORAD_CAT_ID":"51135","TIME_SYSTEM":"UTC","TLE_LINE2":"2 51135  53.2152 303.1242 0000868  97.4047 262.7043 15.08867981 60220","MEAN_MOTION_DDOT":"0.0000000000000","ELEMENT_SET_NO":"999","MEAN_ELEMENT_THEORY":"SGP4","TLE_LINE1":"1 51135U 22005AH  23041.09723304  .00036490  00000-0  22972-2 0  9998","MEAN_MOTION_DOT":"0.00036490","ECCENTRICITY":"0.00008680"},{"SITE":"AFETR","INCLINATION":"53.2135","RCS_SIZE":"LARGE","PERIOD":"95.436","MEAN_ANOMALY":"275.2930","GP_ID":"225001698","OBJECT_TYPE":"PAYLOAD","CENTER_NAME":"EARTH","COUNTRY_CODE":"US","REV_AT_EPOCH":"5910","OBJECT_ID":"2022-005AJ","EPHEMERIS_TYPE":"0","DECAY_DATE":null,"MEAN_MOTION":"15.08862633","EPOCH":"2023-02-10T02:21:23.501088","CLASSIFICATION_TYPE":"U","OBJECT_NAME":"STARLINK-3253","BSTAR":"0.00266310000000","SEMIMAJOR_AXIS":"6917.811","PERIAPSIS":"538.726","APOAPSIS":"540.627","LAUNCH_DATE":"2022-01-19","NORAD_CAT_ID":"51136","TIME_SYSTEM":"UTC","REF_FRAME":"TEME","FILE":"3784184","ARG_OF_PERICENTER":"84.8219","RA_OF_ASC_NODE":"303.1279","ELEMENT_SET_NO":"999","MEAN_MOTION_DDOT":"0.0000000000000","TLE_LINE2":"2 51136  53.2135 303.1279 0001374  84.8219 275.2930 15.08862633 59104","MEAN_MOTION_DOT":"0.00042377","TLE_LINE1":"1 51136U 22005AJ  23041.09818867  .00042377  00000-0  26631-2 0  9995","MEAN_ELEMENT_THEORY":"SGP4","ECCENTRICITY":"0.00013740"},{"ARG_OF_PERICENTER":"66.6840","RA_OF_ASC_NODE":"299.9130","TIME_SYSTEM":"UTC","NORAD_CAT_ID":"51137","FILE":"3785071","REF_FRAME":"TEME","TLE_LINE2":"2 51137  53.2123 299.9130 0001040  66.6840 293.4261 15.08865291 59223","ELEMENT_SET_NO":"999","MEAN_MOTION_DDOT":"0.0000000000000","TLE_LINE1":"1 51137U 22005AK  23041.81483362  .00028744  00000-0  18155-2 0  9998","MEAN_ELEMENT_THEORY":"SGP4","MEAN_MOTION_DOT":"0.00028744","ECCENTRICITY":"0.00010400","GP_ID":"225071518","OBJECT_TYPE":"PAYLOAD","RCS_SIZE":"LARGE","PERIOD":"95.436","MEAN_ANOMALY":"293.4261","SITE":"AFETR","INCLINATION":"53.2123","CENTER_NAME":"EARTH","REV_AT_EPOCH":"5922","COUNTRY_CODE":"US","EPOCH":"2023-02-10T19:33:21.624768","MEAN_MOTION":"15.08865291","DECAY_DATE":null,"OBJECT_ID":"2022-005AK","EPHEMERIS_TYPE":"0","LAUNCH_DATE":"2022-01-19","APOAPSIS":"540.388","PERIAPSIS":"538.949","BSTAR":"0.00181550000000","SEMIMAJOR_AXIS":"6917.803","OBJECT_NAME":"STARLINK-3180","CLASSIFICATION_TYPE":"U"},{"SITE":"AFETR","INCLINATION":"53.2151","MEAN_ANOMALY":"282.5018","RCS_SIZE":"MEDIUM","PERIOD":"95.435","OBJECT_TYPE":"PAYLOAD","GP_ID":"225000198","REV_AT_EPOCH":"5911","COUNTRY_CODE":"US","CENTER_NAME":"EARTH","EPHEMERIS_TYPE":"0","OBJECT_ID":"2022-005AL","DECAY_DATE":null,"MEAN_MOTION":"15.08883857","EPOCH":"2023-02-10T03:50:05.914752","OBJECT_NAME":"STARLINK-3177","CLASSIFICATION_TYPE":"U","SEMIMAJOR_AXIS":"6917.746","BSTAR":"0.00259980000000","PERIAPSIS":"538.877","APOAPSIS":"540.346","LAUNCH_DATE":"2022-01-19","FILE":"3784184","REF_FRAME":"TEME","NORAD_CAT_ID":"51138","TIME_SYSTEM":"UTC","RA_OF_ASC_NODE":"302.8483","ARG_OF_PERICENTER":"77.6092","MEAN_MOTION_DDOT":"0.0000000000000","ELEMENT_SET_NO":"999","TLE_LINE2":"2 51138  53.2151 302.8483 0001062  77.6092 282.5018 15.08883857 59110","MEAN_MOTION_DOT":"0.00041381","TLE_LINE1":"1 51138U 22005AL  23041.15979068  .00041381  00000-0  25998-2 0  9994","MEAN_ELEMENT_THEORY":"SGP4","ECCENTRICITY":"0.00010620"},{"REV_AT_EPOCH":"6023","COUNTRY_CODE":"US","CENTER_NAME":"EARTH","OBJECT_TYPE":"PAYLOAD","GP_ID":"225034398","SITE":"AFETR","INCLINATION":"53.2149","PERIOD":"95.436","RCS_SIZE":"LARGE","MEAN_ANOMALY":"298.5438","PERIAPSIS":"538.875","APOAPSIS":"540.459","LAUNCH_DATE":"2022-01-19","CLASSIFICATION_TYPE":"U","OBJECT_NAME":"STARLINK-3172","BSTAR":"0.00252080000000","SEMIMAJOR_AXIS":"6917.802","DECAY_DATE":null,"EPOCH":"2023-02-10T03:28:54.111936","MEAN_MOTION":"15.08865569","EPHEMERIS_TYPE":"0","OBJECT_ID":"2022-005AM","ELEMENT_SET_NO":"999","MEAN_MOTION_DDOT":"0.0000000000000","TLE_LINE2":"2 51139  53.2149 302.9146 0001145  61.5669 298.5438 15.08865569 60237","RA_OF_ASC_NODE":"302.9146","ARG_OF_PERICENTER":"61.5669","REF_FRAME":"TEME","FILE":"3784369","NORAD_CAT_ID":"51139","TIME_SYSTEM":"UTC","ECCENTRICITY":"0.00011450","MEAN_ELEMENT_THEORY":"SGP4","TLE_LINE1":"1 51139U 22005AM  23041.14507074  .00040087  00000-0  25208-2 0  9994","MEAN_MOTION_DOT":"0.00040087"},{"EPHEMERIS_TYPE":"0","OBJECT_ID":"2022-005AN","EPOCH":"2023-02-10T19:38:39.343488","MEAN_MOTION":"15.08847301","DECAY_DATE":null,"BSTAR":"0.00084699000000","SEMIMAJOR_AXIS":"6917.858","OBJECT_NAME":"STARLINK-3175","CLASSIFICATION_TYPE":"U","APOAPSIS":"540.368","LAUNCH_DATE":"2022-01-19","PERIAPSIS":"539.078","RCS_SIZE":"LARGE","MEAN_ANOMALY":"223.2499","PERIOD":"95.437","SITE":"AFETR","INCLINATION":"53.2150","OBJECT_TYPE":"PAYLOAD","GP_ID":"225071268","COUNTRY_CODE":"US","REV_AT_EPOCH":"5922","CENTER_NAME":"EARTH","MEAN_MOTION_DOT":"0.00013220","TLE_LINE1":"1 51140U 22005AN  23041.81851092  .00013220  00000-0  84699-3 0  9991","MEAN_ELEMENT_THEORY":"SGP4","ECCENTRICITY":"0.00009320","REF_FRAME":"TEME","FILE":"3785071","TIME_SYSTEM":"UTC","NORAD_CAT_ID":"51140","RA_OF_ASC_NODE":"299.8902","ARG_OF_PERICENTER":"136.8566","TLE_LINE2":"2 51140  53.2150 299.8902 0000932 136.8566 223.2499 15.08847301 59223","ELEMENT_SET_NO":"999","MEAN_MOTION_DDOT":"0.0000000000000"},{"ELEMENT_SET_NO":"999","MEAN_MOTION_DDOT":"0.0000000000000","TLE_LINE2":"2 51141  53.2145 302.9471 0001112  96.7669 263.3450 15.08890025 60230","RA_OF_ASC_NODE":"302.9471","ARG_OF_PERICENTER":"96.7669","REF_FRAME":"TEME","FILE":"3784362","TIME_SYSTEM":"UTC","NORAD_CAT_ID":"51141","ECCENTRICITY":"0.00011120","TLE_LINE1":"1 51141U 22005AP  23041.13770256  .00042001  00000-0  26378-2 0  9997","MEAN_ELEMENT_THEORY":"SGP4","MEAN_MOTION_DOT":"0.00042001","REV_AT_EPOCH":"6023","COUNTRY_CODE":"US","CENTER_NAME":"EARTH","OBJECT_TYPE":"PAYLOAD","GP_ID":"225034412","SITE":"AFETR","INCLINATION":"53.2145","RCS_SIZE":"MEDIUM","MEAN_ANOMALY":"263.3450","PERIOD":"95.434","PERIAPSIS":"538.823","APOAPSIS":"540.362","LAUNCH_DATE":"2022-01-19","OBJECT_NAME":"STARLINK-3179","CLASSIFICATION_TYPE":"U","SEMIMAJOR_AXIS":"6917.727","BSTAR":"0.00263780000000","DECAY_DATE":null,"EPOCH":"2023-02-10T03:18:17.501184","MEAN_MOTION":"15.08890025","EPHEMERIS_TYPE":"0","OBJECT_ID":"2022-005AP"},{"CENTER_NAME":"EARTH","COUNTRY_CODE":"US","REV_AT_EPOCH":"5936","RCS_SIZE":"LARGE","PERIOD":"95.437","MEAN_ANOMALY":"221.5512","INCLINATION":"53.2144","SITE":"AFETR","GP_ID":"225072269","OBJECT_TYPE":"PAYLOAD","SEMIMAJOR_AXIS":"6917.846","BSTAR":"0.00139460000000","CLASSIFICATION_TYPE":"U","OBJECT_NAME":"STARLINK-3369","APOAPSIS":"540.334","LAUNCH_DATE":"2022-01-19","PERIAPSIS":"539.088","OBJECT_ID":"2022-005AQ","EPHEMERIS_TYPE":"0","EPOCH":"2023-02-10T20:39:38.629728","MEAN_MOTION":"15.08851268","DECAY_DATE":null,"TLE_LINE2":"2 51142  53.2144 289.7001 0000900 138.5548 221.5512 15.08851268 59369","ELEMENT_SET_NO":"999","MEAN_MOTION_DDOT":"0.0000000000000","NORAD_CAT_ID":"51142","TIME_SYSTEM":"UTC","REF_FRAME":"TEME","FILE":"3785071","ARG_OF_PERICENTER":"138.5548","RA_OF_ASC_NODE":"289.7001","ECCENTRICITY":"0.00009000","MEAN_MOTION_DOT":"0.00021984","MEAN_ELEMENT_THEORY":"SGP4","TLE_LINE1":"1 51142U 22005AQ  23041.86086377  .00021984  00000-0  13946-2 0  9996"}];
